{"type": "FeatureCollection", "features": [ {"type": "Feature", "properties": {"norad_id": 67038, "name": "STARLINK-35775", "group": "last-30-days", "lat": 19.75753079582512, "lon": 165.38964787440358, "alt_km": 291.2554420351689, "timestamp": "2025-12-19T04:59:47.033883+00:00", "meta": {"OBJECT_NAME": "STARLINK-35775", "OBJECT_ID": "2025-294J", "EPOCH": "2025-12-18T21:20:50.214912", "MEAN_MOTION": 15.928874, "ECCENTRICITY": 0.00021094, "INCLINATION": 42.999, "RA_OF_ASC_NODE": 144.7014, "ARG_OF_PERICENTER": 326.6352, "MEAN_ANOMALY": 33.439, "EPHEMERIS_TYPE": 0, "CLASSIFICATION_TYPE": "U", "NORAD_CAT_ID": 67038, "ELEMENT_SET_NO": 999, "REV_AT_EPOCH": 233, "BSTAR": -0.0014709432, "MEAN_MOTION_DOT": -0.00533225, "MEAN_MOTION_DDOT": 9.8064521e-05}, "tle": {"line1": "1 67038U 25294J   25352.88947008 -.00533225  98065-4 -14709-2 0  9994", "line2": "2 67038  42.9990 144.7014 0002109 326.6352  33.4390 15.92887400  2333"}}, "geometry": {"type": "Point", "coordinates": [165.38964787440358, 19.75753079582512]}}, {"type": "Feature", "properties": {"norad_id": 67039, "name": "STARLINK-35705", "group": "last-30-days", "lat": 22.18632866778637, "lon": 168.66263039777644, "alt_km": 290.28321386295374, "timestamp": "2025-12-19T04:59:47.033892+00:00", "meta": {"OBJECT_NAME": "STARLINK-35705", "OBJECT_ID": "2025-294K", "EPOCH": "2025-12-18T21:19:56.570880", "MEAN_MOTION": 15.93136582, "ECCENTRICITY": 0.00027709, "INCLINATION": 42.9994, "RA_OF_ASC_NODE": 144.6978, "ARG_OF_PERICENTER": 312.0855, "MEAN_ANOMALY": 47.9785, "EPHEMERIS_TYPE": 0, "CLASSIFICATION_TYPE": "U", "NORAD_CAT_ID": 67039, "ELEMENT_SET_NO": 999, "REV_AT_EPOCH": 232, "BSTAR": -0.0010395865, "MEAN_MOTION_DOT": -0.00382869, "MEAN_MOTION_DDOT": 5.5690243e-05}, "tle": {"line1": "1 67039U 25294K   25352.88884920 -.00382869  55690-4 -10396-2 0  9999", "line2": "2 67039  42.9994 144.6978 0002770 312.0855  47.9785 15.93136582  2323"}}, "geometry": {"type": "Point", "coordinates": [168.66263039777644, 22.18632866778637]}}, {"type": "Feature", "properties": {"norad_id": 67040, "name": "STARLINK-35786", "group": "last-30-days", "lat": 21.041711180235957, "lon": 167.0961688564199, "alt_km": 289.5805997174866, "timestamp": "2025-12-19T04:59:47.033902+00:00", "meta": {"OBJECT_NAME": "STARLINK-35786", "OBJECT_ID": "2025-294L", "EPOCH": "2025-12-18T21:20:22.833888", "MEAN_MOTION": 15.93038152, "ECCENTRICITY": 0.00030631, "INCLINATION": 43.0002, "RA_OF_ASC_NODE": 144.7003, "ARG_OF_PERICENTER": 346.3882, "MEAN_ANOMALY": 13.691, "EPHEMERIS_TYPE": 0, "CLASSIFICATION_TYPE": "U", "NORAD_CAT_ID": 67040, "ELEMENT_SET_NO": 999, "REV_AT_EPOCH": 232, "BSTAR": -0.0010665141, "MEAN_MOTION_DOT": -0.00390718, "MEAN_MOTION_DDOT": 5.7547432e-05}, "tle": {"line1": "1 67040U 25294L   25352.88915317 -.00390718  57547-4 -10665-2 0  9990", "line2": "2 67040  43.0002 144.7003 0003063 346.3882  13.6910 15.93038152  2327"}}, "geometry": {"type": "Point", "coordinates": [167.0961688564199, 21.041711180235957]}}, {"type": "Feature", "properties": {"norad_id": 67041, "name": "STARLINK-35765", "group": "last-30-days", "lat": 23.26442847650234, "lon": 170.1802157013678, "alt_km": 291.34662073169875, "timestamp": "2025-12-19T04:59:47.033915+00:00", "meta": {"OBJECT_NAME": "STARLINK-35765", "OBJECT_ID": "2025-294M", "EPOCH": "2025-12-18T21:19:31.662624", "MEAN_MOTION": 15.93238513, "ECCENTRICITY": 0.00021397, "INCLINATION": 42.9992, "RA_OF_ASC_NODE": 144.6947, "ARG_OF_PERICENTER": 247.7766, "MEAN_ANOMALY": 112.2883, "EPHEMERIS_TYPE": 0, "CLASSIFICATION_TYPE": "U", "NORAD_CAT_ID": 67041, "ELEMENT_SET_NO": 999, "REV_AT_EPOCH": 232, "BSTAR": -0.00093767576, "MEAN_MOTION_DOT": -0.00347436, "MEAN_MOTION_DDOT": 4.7560464e-05}, "tle": {"line1": "1 67041U 25294M   25352.88856091 -.00347436  47560-4 -93768-3 0  9993", "line2": "2 67041  42.9992 144.6947 0002139 247.7766 112.2883 15.93238513  2326"}}, "geometry": {"type": "Point", "coordinates": [170.1802157013678, 23.26442847650234]}}, {"type": "Feature", "properties": {"norad_id": 67042, "name": "STARLINK-35773", "group": "last-30-days", "lat": 24.563760997445875, "lon": 172.07247584839922, "alt_km": 286.2380117481234, "timestamp": "2025-12-19T04:59:47.033927+00:00", "meta": {"OBJECT_NAME": "STARLINK-35773", "OBJECT_ID": "2025-294N", "EPOCH": "2025-12-18T21:19:05.988864", "MEAN_MOTION": 15.9345852, "ECCENTRICITY": 0.00045686, "INCLINATION": 42.9986, "RA_OF_ASC_NODE": 144.6916, "ARG_OF_PERICENTER": 354.0056, "MEAN_ANOMALY": 6.0764, "EPHEMERIS_TYPE": 0, "CLASSIFICATION_TYPE": "U", "NORAD_CAT_ID": 67042, "ELEMENT_SET_NO": 999, "REV_AT_EPOCH": 232, "BSTAR": 0.00029792293, "MEAN_MOTION_DOT": 0.00108323, "MEAN_MOTION_DDOT": 1.2799951e-05}, "tle": {"line1": "1 67042U 25294N   25352.88826376  .00108323  12800-4  29792-3 0  9990", "line2": "2 67042  42.9986 144.6916 0004568 354.0056   6.0764 15.93458520  2328"}}, "geometry": {"type": "Point", "coordinates": [172.07247584839922, 24.563760997445875]}}, {"type": "Feature", "properties": {"norad_id": 67043, "name": "STARLINK-35901", "group": "last-30-days", "lat": 25.013281816205645, "lon": 172.74590366639956, "alt_km": 293.2721835995899, "timestamp": "2025-12-19T04:59:47.033937+00:00", "meta": {"OBJECT_NAME": "STARLINK-35901", "OBJECT_ID": "2025-294P", "EPOCH": "2025-12-18T22:00:00.999936", "MEAN_MOTION": 15.92925013, "ECCENTRICITY": 0.00019276, "INCLINATION": 42.9997, "RA_OF_ASC_NODE": 144.5126, "ARG_OF_PERICENTER": 265.9098, "MEAN_ANOMALY": 259.1567, "EPHEMERIS_TYPE": 0, "CLASSIFICATION_TYPE": "U", "NORAD_CAT_ID": 67043, "ELEMENT_SET_NO": 999, "REV_AT_EPOCH": 130, "BSTAR": -0.0037414065, "MEAN_MOTION_DOT": -0.01348272, "MEAN_MOTION_DDOT": 0.0005265686}, "tle": {"line1": "1 67043U 25294P   25352.91667824 -.01348272  52657-3 -37414-2 0  9990", "line2": "2 67043  42.9997 144.5126 0001927 265.9098 259.1567 15.92925013  1309"}}, "geometry": {"type": "Point", "coordinates": [172.74590366639956, 25.013281816205645]}}, {"type": "Feature", "properties": {"norad_id": 67044, "name": "STARLINK-35884", "group": "last-30-days", "lat": 26.067656940481783, "lon": 174.35998310561516, "alt_km": 292.79897701909795, "timestamp": "2025-12-19T04:59:47.033947+00:00", "meta": {"OBJECT_NAME": "STARLINK-35884", "OBJECT_ID": "2025-294Q", "EPOCH": "2025-12-18T22:00:00.999936", "MEAN_MOTION": 15.92991719, "ECCENTRICITY": 0.00016152, "INCLINATION": 43, "RA_OF_ASC_NODE": 144.508, "ARG_OF_PERICENTER": 265.3638, "MEAN_ANOMALY": 261.4329, "EPHEMERIS_TYPE": 0, "CLASSIFICATION_TYPE": "U", "NORAD_CAT_ID": 67044, "ELEMENT_SET_NO": 999, "REV_AT_EPOCH": 130, "BSTAR": -0.0037043153, "MEAN_MOTION_DOT": -0.01339626, "MEAN_MOTION_DDOT": 0.00052074067}, "tle": {"line1": "1 67044U 25294Q   25352.91667824 -.01339626  52074-3 -37043-2 0  9995", "line2": "2 67044  43.0000 144.5080 0001615 265.3638 261.4329 15.92991719  1302"}}, "geometry": {"type": "Point", "coordinates": [174.35998310561516, 26.067656940481783]}}, {"type": "Feature", "properties": {"norad_id": 67045, "name": "STARLINK-35891", "group": "last-30-days", "lat": 27.35577827640308, "lon": 176.4130476493523, "alt_km": 292.39625690390585, "timestamp": "2025-12-19T04:59:47.033957+00:00", "meta": {"OBJECT_NAME": "STARLINK-35891", "OBJECT_ID": "2025-294R", "EPOCH": "2025-12-18T22:00:00.999936", "MEAN_MOTION": 15.93086751, "ECCENTRICITY": 0.0001638, "INCLINATION": 42.9999, "RA_OF_ASC_NODE": 144.5023, "ARG_OF_PERICENTER": 266.1264, "MEAN_ANOMALY": 262.8206, "EPHEMERIS_TYPE": 0, "CLASSIFICATION_TYPE": "U", "NORAD_CAT_ID": 67045, "ELEMENT_SET_NO": 999, "REV_AT_EPOCH": 130, "BSTAR": -0.0037512885, "MEAN_MOTION_DOT": -0.01363158, "MEAN_MOTION_DDOT": 0.00053811615}, "tle": {"line1": "1 67045U 25294R   25352.91667824 -.01363158  53812-3 -37513-2 0  9996", "line2": "2 67045  42.9999 144.5023 0001638 266.1264 262.8206 15.93086751  1305"}}, "geometry": {"type": "Point", "coordinates": [176.4130476493523, 27.35577827640308]}}, {"type": "Feature", "properties": {"norad_id": 67046, "name": "STARLINK-35721", "group": "last-30-days", "lat": 28.470140306171768, "lon": 178.26939783532256, "alt_km": 292.0111064822577, "timestamp": "2025-12-19T04:59:47.033967+00:00", "meta": {"OBJECT_NAME": "STARLINK-35721", "OBJECT_ID": "2025-294S", "EPOCH": "2025-12-18T22:00:00.999936", "MEAN_MOTION": 15.93165818, "ECCENTRICITY": 0.00016084, "INCLINATION": 43.0002, "RA_OF_ASC_NODE": 144.4972, "ARG_OF_PERICENTER": 267.1099, "MEAN_ANOMALY": 263.7424, "EPHEMERIS_TYPE": 0, "CLASSIFICATION_TYPE": "U", "NORAD_CAT_ID": 67046, "ELEMENT_SET_NO": 999, "REV_AT_EPOCH": 130, "BSTAR": -0.0037651607, "MEAN_MOTION_DOT": -0.01373787, "MEAN_MOTION_DDOT": 0.00054625021}, "tle": {"line1": "1 67046U 25294S   25352.91667824 -.01373787  54625-3 -37652-2 0  9993", "line2": "2 67046  43.0002 144.4972 0001608 267.1099 263.7424 15.93165818  1303"}}, "geometry": {"type": "Point", "coordinates": [178.26939783532256, 28.470140306171768]}}, {"type": "Feature", "properties": {"norad_id": 67047, "name": "STARLINK-35779", "group": "last-30-days", "lat": 29.697528771193166, "lon": -179.584523443271, "alt_km": 291.59445145814334, "timestamp": "2025-12-19T04:59:47.033977+00:00", "meta": {"OBJECT_NAME": "STARLINK-35779", "OBJECT_ID": "2025-294T", "EPOCH": "2025-12-18T22:00:00.999936", "MEAN_MOTION": 15.93255804, "ECCENTRICITY": 0.00016138, "INCLINATION": 43.0001, "RA_OF_ASC_NODE": 144.493, "ARG_OF_PERICENTER": 269.2865, "MEAN_ANOMALY": 263.7192, "EPHEMERIS_TYPE": 0, "CLASSIFICATION_TYPE": "U", "NORAD_CAT_ID": 67047, "ELEMENT_SET_NO": 999, "REV_AT_EPOCH": 130, "BSTAR": -0.0038031527, "MEAN_MOTION_DOT": -0.01394021, "MEAN_MOTION_DDOT": 0.0005615781}, "tle": {"line1": "1 67047U 25294T   25352.91667824 -.01394021  56158-3 -38032-2 0  9994", "line2": "2 67047  43.0001 144.4930 0001613 269.2865 263.7192 15.93255804  1304"}}, "geometry": {"type": "Point", "coordinates": [-179.584523443271, 29.697528771193166]}}]}